CCSDS_OMM_VERS = 2.0
CREATION_DATE  = 
ORIGINATOR     = 

OBJECT_NAME    = SL-14 R/B
OBJECT_ID      = 1986-046B
CENTER_NAME    = EARTH
REF_FRAME      = TEME
TIME_SYSTEM    = UTC
MEAN_ELEMENT_THEORY = SGP/SGP4

EPOCH          = 2026-03-01T10:55:36.045120
MEAN_MOTION    = 14.85580978
ECCENTRICITY   = .0021585
INCLINATION    = 82.4785
RA_OF_ASC_NODE = 87.9648
ARG_OF_PERICENTER = 254.1901
MEAN_ANOMALY   = 105.6935

EPHEMERIS_TYPE = 0
CLASSIFICATION_TYPE = U
NORAD_CAT_ID   = 16792
ELEMENT_SET_NO = 999
REV_AT_EPOCH   = 12518
BSTAR          = .60078E-4
MEAN_MOTION_DOT = .545E-5
MEAN_MOTION_DDOT = 0

CCSDS_OMM_VERS = 2.0
CREATION_DATE  = 
ORIGINATOR     = 

OBJECT_NAME    = SL-14 R/B
OBJECT_ID      = 1986-055B
CENTER_NAME    = EARTH
REF_FRAME      = TEME
TIME_SYSTEM    = UTC
MEAN_ELEMENT_THEORY = SGP/SGP4

EPOCH          = 2026-03-01T05:57:49.453920
MEAN_MOTION    = 14.85633564
ECCENTRICITY   = .0018928
INCLINATION    = 82.5217
RA_OF_ASC_NODE = 134.6074
ARG_OF_PERICENTER = 4.9210
MEAN_ANOMALY   = 53.1722

EPHEMERIS_TYPE = 0
CLASSIFICATION_TYPE = U
NORAD_CAT_ID   = 16882
ELEMENT_SET_NO = 999
REV_AT_EPOCH   = 11811
BSTAR          = .58613E-4
MEAN_MOTION_DOT = .533E-5
MEAN_MOTION_DDOT = 0

CCSDS_OMM_VERS = 2.0
CREATION_DATE  = 
ORIGINATOR     = 

OBJECT_NAME    = AJISAI (EGS)
OBJECT_ID      = 1986-061A
CENTER_NAME    = EARTH
REF_FRAME      = TEME
TIME_SYSTEM    = UTC
MEAN_ELEMENT_THEORY = SGP/SGP4

EPOCH          = 2026-03-01T12:21:20.174112
MEAN_MOTION    = 12.44515501
ECCENTRICITY   = .0011242
INCLINATION    = 50.0081
RA_OF_ASC_NODE = 118.4862
ARG_OF_PERICENTER = 265.9474
MEAN_ANOMALY   = 121.3863

EPHEMERIS_TYPE = 0
CLASSIFICATION_TYPE = U
NORAD_CAT_ID   = 16908
ELEMENT_SET_NO = 999
REV_AT_EPOCH   = 46698
BSTAR          = .10762E-3
MEAN_MOTION_DOT = -.82E-6
MEAN_MOTION_DDOT = 0

CCSDS_OMM_VERS = 2.0
CREATION_DATE  = 
ORIGINATOR     = 

OBJECT_NAME    = COSMOS 1812
OBJECT_ID      = 1987-003A
CENTER_NAME    = EARTH
REF_FRAME      = TEME
TIME_SYSTEM    = UTC
MEAN_ELEMENT_THEORY = SGP/SGP4

EPOCH          = 2026-03-01T16:54:10.935072
MEAN_MOTION    = 16.18044831
ECCENTRICITY   = .0006534
INCLINATION    = 82.4733
RA_OF_ASC_NODE = 204.7715
ARG_OF_PERICENTER = 287.6253
MEAN_ANOMALY   = 72.4320

EPHEMERIS_TYPE = 0
CLASSIFICATION_TYPE = U
NORAD_CAT_ID   = 17295
ELEMENT_SET_NO = 999
REV_AT_EPOCH   = 14319
BSTAR          = .80777E-3
MEAN_MOTION_DOT = .1313129E-1
MEAN_MOTION_DDOT = -.1201E-5

CCSDS_OMM_VERS = 2.0
CREATION_DATE  = 
ORIGINATOR     = 

OBJECT_NAME    = SL-14 R/B
OBJECT_ID      = 1987-024B
CENTER_NAME    = EARTH
REF_FRAME      = TEME
TIME_SYSTEM    = UTC
MEAN_ELEMENT_THEORY = SGP/SGP4

EPOCH          = 2026-03-01T11:48:01.683360
MEAN_MOTION    = 14.86122966
ECCENTRICITY   = .0016725
INCLINATION    = 82.5255
RA_OF_ASC_NODE = 100.4708
ARG_OF_PERICENTER = 289.5756
MEAN_ANOMALY   = 70.3655

EPHEMERIS_TYPE = 0
CLASSIFICATION_TYPE = U
NORAD_CAT_ID   = 17567
ELEMENT_SET_NO = 999
REV_AT_EPOCH   = 8691
BSTAR          = .55587E-4
MEAN_MOTION_DOT = .512E-5
MEAN_MOTION_DDOT = 0

CCSDS_OMM_VERS = 2.0
CREATION_DATE  = 
ORIGINATOR     = 

OBJECT_NAME    = COSMOS 1833
OBJECT_ID      = 1987-027A
CENTER_NAME    = EARTH
REF_FRAME      = TEME
TIME_SYSTEM    = UTC
MEAN_ELEMENT_THEORY = SGP/SGP4

EPOCH          = 2026-03-01T05:22:29.008704
MEAN_MOTION    = 14.13056468
ECCENTRICITY   = .0024628
INCLINATION    = 70.9233
RA_OF_ASC_NODE = 343.8099
ARG_OF_PERICENTER = 226.1992
MEAN_ANOMALY   = 133.7092

EPHEMERIS_TYPE = 0
CLASSIFICATION_TYPE = U
NORAD_CAT_ID   = 17589
ELEMENT_SET_NO = 999
REV_AT_EPOCH   = 912
BSTAR          = -.41765E-4
MEAN_MOTION_DOT = -.126E-5
MEAN_MOTION_DDOT = 0

CCSDS_OMM_VERS = 2.0
CREATION_DATE  = 
ORIGINATOR     = 

OBJECT_NAME    = SL-16 R/B
OBJECT_ID      = 1987-027B
CENTER_NAME    = EARTH
REF_FRAME      = TEME
TIME_SYSTEM    = UTC
MEAN_ELEMENT_THEORY = SGP/SGP4

EPOCH          = 2026-03-01T01:56:36.533760
MEAN_MOTION    = 14.17166961
ECCENTRICITY   = .00038373
INCLINATION    = 71.0023
RA_OF_ASC_NODE = 294.6369
ARG_OF_PERICENTER = 160.4825
MEAN_ANOMALY   = 199.6446

EPHEMERIS_TYPE = 0
CLASSIFICATION_TYPE = U
NORAD_CAT_ID   = 17590
ELEMENT_SET_NO = 999
REV_AT_EPOCH   = 1412
BSTAR          = -.54214317E-4
MEAN_MOTION_DOT = -.157E-5
MEAN_MOTION_DDOT = 0

CCSDS_OMM_VERS = 2.0
CREATION_DATE  = 
ORIGINATOR     = 

OBJECT_NAME    = SL-14 R/B
OBJECT_ID      = 1987-038B
CENTER_NAME    = EARTH
REF_FRAME      = TEME
TIME_SYSTEM    = UTC
MEAN_ELEMENT_THEORY = SGP/SGP4

EPOCH          = 2026-03-01T03:29:40.780896
MEAN_MOTION    = 14.85360254
ECCENTRICITY   = .00189361
INCLINATION    = 82.5018
RA_OF_ASC_NODE = 304.8566
ARG_OF_PERICENTER = 188.4323
MEAN_ANOMALY   = 171.6578

EPHEMERIS_TYPE = 0
CLASSIFICATION_TYPE = U
NORAD_CAT_ID   = 17912
ELEMENT_SET_NO = 999
REV_AT_EPOCH   = 7796
BSTAR          = .53819538E-4
MEAN_MOTION_DOT = .488E-5
MEAN_MOTION_DDOT = 0

CCSDS_OMM_VERS = 2.0
CREATION_DATE  = 
ORIGINATOR     = 

OBJECT_NAME    = COSMOS 1844
OBJECT_ID      = 1987-041A
CENTER_NAME    = EARTH
REF_FRAME      = TEME
TIME_SYSTEM    = UTC
MEAN_ELEMENT_THEORY = SGP/SGP4

EPOCH          = 2026-03-01T09:49:43.751424
MEAN_MOTION    = 14.14553227
ECCENTRICITY   = .0029571
INCLINATION    = 70.8991
RA_OF_ASC_NODE = 51.6401
ARG_OF_PERICENTER = 30.4858
MEAN_ANOMALY   = 329.7975

EPHEMERIS_TYPE = 0
CLASSIFICATION_TYPE = U
NORAD_CAT_ID   = 17973
ELEMENT_SET_NO = 999
REV_AT_EPOCH   = 241
BSTAR          = .10941E-4
MEAN_MOTION_DOT = -.27E-6
MEAN_MOTION_DDOT = 0

CCSDS_OMM_VERS = 2.0
CREATION_DATE  = 
ORIGINATOR     = 

OBJECT_NAME    = SL-14 R/B
OBJECT_ID      = 1987-055B
CENTER_NAME    = EARTH
REF_FRAME      = TEME
TIME_SYSTEM    = UTC
MEAN_ELEMENT_THEORY = SGP/SGP4

EPOCH          = 2026-03-01T07:49:36.933888
MEAN_MOTION    = 14.85617408
ECCENTRICITY   = .0021807
INCLINATION    = 82.5026
RA_OF_ASC_NODE = 356.9113
ARG_OF_PERICENTER = 44.4071
MEAN_ANOMALY   = 315.8888

EPHEMERIS_TYPE = 0
CLASSIFICATION_TYPE = U
NORAD_CAT_ID   = 18153
ELEMENT_SET_NO = 999
REV_AT_EPOCH   = 6869
BSTAR          = .76886E-4
MEAN_MOTION_DOT = .692E-5
MEAN_MOTION_DDOT = 0

CCSDS_OMM_VERS = 2.0
CREATION_DATE  = 
ORIGINATOR     = 

OBJECT_NAME    = COSMOS 1867
OBJECT_ID      = 1987-060A
CENTER_NAME    = EARTH
REF_FRAME      = TEME
TIME_SYSTEM    = UTC
MEAN_ELEMENT_THEORY = SGP/SGP4

EPOCH          = 2026-03-01T03:03:56.878560
MEAN_MOTION    = 14.31501394
ECCENTRICITY   = .00143717
INCLINATION    = 65.0122
RA_OF_ASC_NODE = 330.6823
ARG_OF_PERICENTER = 278.1306
MEAN_ANOMALY   = 81.8148

EPHEMERIS_TYPE = 0
CLASSIFICATION_TYPE = U
NORAD_CAT_ID   = 18187
ELEMENT_SET_NO = 999
REV_AT_EPOCH   = 1871
BSTAR          = .24161807E-4
MEAN_MOTION_DOT = -.36E-6
MEAN_MOTION_DDOT = 0

CCSDS_OMM_VERS = 2.0
CREATION_DATE  = 
ORIGINATOR     = 

OBJECT_NAME    = SL-14 R/B
OBJECT_ID      = 1988-001B
CENTER_NAME    = EARTH
REF_FRAME      = TEME
TIME_SYSTEM    = UTC
MEAN_ELEMENT_THEORY = SGP/SGP4

EPOCH          = 2026-03-01T10:55:59.144160
MEAN_MOTION    = 14.85515668
ECCENTRICITY   = .0016588
INCLINATION    = 82.5139
RA_OF_ASC_NODE = 203.1031
ARG_OF_PERICENTER = 265.2552
MEAN_ANOMALY   = 94.6769

EPHEMERIS_TYPE = 0
CLASSIFICATION_TYPE = U
NORAD_CAT_ID   = 18749
ELEMENT_SET_NO = 999
REV_AT_EPOCH   = 4080
BSTAR          = .77473E-4
MEAN_MOTION_DOT = .694E-5
MEAN_MOTION_DDOT = 0

