SL-14 R/B               
1 16792U 86046B   26060.45527830  .00000545  00000+0  60078-4 0  9995
2 16792  82.4785  87.9648 0021585 254.1901 105.6935 14.85580978125187
SL-14 R/B               
1 16882U 86055B   26060.24848905  .00000533  00000+0  58613-4 0  9990
2 16882  82.5217 134.6074 0018928   4.9210  53.1722 14.85633564118118
AJISAI (EGS)            
1 16908U 86061A   26060.51481683 -.00000082  00000+0  10762-3 0  9994
2 16908  50.0081 118.4862 0011242 265.9474 121.3863 12.44515501466982
COSMOS 1812             
1 17295U 87003A   26060.70429323  .01313129 -12010-5  80777-3 0  9998
2 17295  82.4733 204.7715 0006534 287.6253  72.4320 16.18044831143192
SL-14 R/B               
1 17567U 87024B   26060.49168615  .00000512  00000+0  55587-4 0  9992
2 17567  82.5255 100.4708 0016725 289.5756  70.3655 14.86122966 86913
COSMOS 1833             
1 17589U 87027A   26060.22394686 -.00000126  00000+0 -41765-4 0  9995
2 17589  70.9233 343.8099 0024628 226.1992 133.7092 14.13056468  9120
SL-16 R/B               
1 17590U 87027B   26060.08097840 -.00000157  00000+0 -54214-4 0  9990
2 17590  71.0023 294.6369 0003837 160.4825 199.6446 14.17166961 14122
SL-14 R/B               
1 17912U 87038B   26060.14561089  .00000488  00000+0  53820-4 0  9995
2 17912  82.5018 304.8566 0018936 188.4323 171.6578 14.85360254 77966
COSMOS 1844             
1 17973U 87041A   26060.40953416 -.00000027  00000+0  10941-4 0  9991
2 17973  70.8991  51.6401 0029571  30.4858 329.7975 14.14553227  2415
SL-14 R/B               
1 18153U 87055B   26060.32612192  .00000692  00000+0  76886-4 0  9998
2 18153  82.5026 356.9113 0021807  44.4071 315.8888 14.85617408 68693
COSMOS 1867             
1 18187U 87060A   26060.12774165 -.00000036  00000+0  24162-4 0  9991
2 18187  65.0122 330.6823 0014371 278.1306  81.8148 14.31501394 18719
SL-14 R/B               
1 18749U 88001B   26060.45554565  .00000694  00000+0  77473-4 0  9999
2 18749  82.5139 203.1031 0016588 265.2552  94.6769 14.85515668 40806
